[{"OBJECT_NAME":"QIANFAN-7","OBJECT_ID":"2024-140G","EPOCH":"2026-03-09T22:22:28.116768","MEAN_MOTION":14.27774901,"ECCENTRICITY":0.00169421,"INCLINATION":88.9727,"RA_OF_ASC_NODE":283.4803,"ARG_OF_PERICENTER":110.6267,"MEAN_ANOMALY":249.6747,"EPHEMERIS_TYPE":0,"CLASSIFICATION_TYPE":"U","NORAD_CAT_ID":60385,"ELEMENT_SET_NO":999,"REV_AT_EPOCH":8283,"BSTAR":0.00011108135,"MEAN_MOTION_DOT":2.89e-6,"MEAN_MOTION_DDOT":0},{"OBJECT_NAME":"DMSP 5D-2 F13 DEB","OBJECT_ID":"1995-015X","EPOCH":"2026-03-08T23:29:14.972928","MEAN_MOTION":14.2549337,"ECCENTRICITY":0.00183189,"INCLINATION":98.8054,"RA_OF_ASC_NODE":93.6664,"ARG_OF_PERICENTER":153.5143,"MEAN_ANOMALY":206.6976,"EPHEMERIS_TYPE":0,"CLASSIFICATION_TYPE":"U","NORAD_CAT_ID":40410,"ELEMENT_SET_NO":999,"REV_AT_EPOCH":57039,"BSTAR":0.0012007329,"MEAN_MOTION_DOT":2.798e-5,"MEAN_MOTION_DDOT":0}]
